[
    {
        "Altitude(m)": 559864.1104902342,
        "Argument of Periapsis(deg)": 0.006622991110713501,
        "Eccentricity": 0.0,
        "Inclination(deg)": 53.0,
        "Latitude(deg)": 52.98973395009586,
        "Longitude(deg)": 160.42456028436578,
        "Mean Anomaly(deg)": 93.72799286757758,
        "RAAN(deg)": 164.990143368528,
        "Satellite Name": "Starlink Shell 1 731",
        "Satellite Number": 731,
        "Semi-Major Axis(m)": 6931778.249405717,
        "Time(s)": 190
    },
    {
        "Altitude(m)": 559850.8855572813,
        "Argument of Periapsis(deg)": 0.0069715695902247375,
        "Eccentricity": 0.0,
        "Inclination(deg)": 53.0,
        "Latitude(deg)": 52.93118691583864,
        "Longitude(deg)": 161.41648204219484,
        "Mean Anomaly(deg)": 94.35482407113432,
        "RAAN(deg)": 164.98962459845052,
        "Satellite Name": "Starlink Shell 1 731",
        "Satellite Number": 731,
        "Semi-Major Axis(m)": 6931778.249405717,
        "Time(s)": 200
    },
    {
        "Altitude(m)": 559835.6214744366,
        "Argument of Periapsis(deg)": 0.007320148069735974,
        "Eccentricity": 0.0,
        "Inclination(deg)": 53.0,
        "Latitude(deg)": 52.863685771880476,
        "Longitude(deg)": 162.4054091768123,
        "Mean Anomaly(deg)": 94.98165527469105,
        "RAAN(deg)": 164.98910582837306,
        "Satellite Name": "Starlink Shell 1 731",
        "Satellite Number": 731,
        "Semi-Major Axis(m)": 6931778.249405717,
        "Time(s)": 210
    },
    {
        "Altitude(m)": 559818.3274420912,
        "Argument of Periapsis(deg)": 0.007668726549247212,
        "Eccentricity": 0.0,
        "Inclination(deg)": 53.0,
        "Latitude(deg)": 52.787279720511094,
        "Longitude(deg)": 163.39093617246064,
        "Mean Anomaly(deg)": 95.60848647824771,
        "RAAN(deg)": 164.98858705829562,
        "Satellite Name": "Starlink Shell 1 731",
        "Satellite Number": 731,
        "Semi-Major Axis(m)": 6931778.249405717,
        "Time(s)": 220
    },
    {
        "Altitude(m)": 559799.0138824556,
        "Argument of Periapsis(deg)": 0.00801730502875845,
        "Eccentricity": 0.0,
        "Inclination(deg)": 53.0,
        "Latitude(deg)": 52.7020240281779,
        "Longitude(deg)": 164.37266730018294,
        "Mean Anomaly(deg)": 96.23531768180446,
        "RAAN(deg)": 164.9880682882181,
        "Satellite Name": "Starlink Shell 1 731",
        "Satellite Number": 731,
        "Semi-Major Axis(m)": 6931778.249405717,
        "Time(s)": 230
    },
    {
        "Altitude(m)": 559777.6924344706,
        "Argument of Periapsis(deg)": 0.008365883508269684,
        "Eccentricity": 0.0,
        "Inclination(deg)": 53.0,
        "Latitude(deg)": 52.60797983311138,
        "Longitude(deg)": 165.35021812666463,
        "Mean Anomaly(deg)": 96.86214888536114,
        "RAAN(deg)": 164.98754951814064,
        "Satellite Name": "Starlink Shell 1 731",
        "Satellite Number": 731,
        "Semi-Major Axis(m)": 6931778.249405717,
        "Time(s)": 240
    },
    {
        "Altitude(m)": 559754.3759481319,
        "Argument of Periapsis(deg)": 0.008714461987780921,
        "Eccentricity": 0.0,
        "Inclination(deg)": 53.0,
        "Latitude(deg)": 52.50521393564923,
        "Longitude(deg)": 166.3232154368828,
        "Mean Anomaly(deg)": 97.4889800889179,
        "RAAN(deg)": 164.98703074806318,
        "Satellite Name": "Starlink Shell 1 731",
        "Satellite Number": 731,
        "Semi-Major Axis(m)": 6931778.249405717,
        "Time(s)": 250
    },
    {
        "Altitude(m)": 559729.0784782171,
        "Argument of Periapsis(deg)": 0.009063040467292158,
        "Eccentricity": 0.0,
        "Inclination(deg)": 53.0,
        "Latitude(deg)": 52.39379857288786,
        "Longitude(deg)": 167.29129859163692,
        "Mean Anomaly(deg)": 98.1158112924746,
        "RAAN(deg)": 164.98651197798569,
        "Satellite Name": "Starlink Shell 1 731",
        "Satellite Number": 731,
        "Semi-Major Axis(m)": 6931778.249405717,
        "Time(s)": 260
    },
    {
        "Altitude(m)": 559701.8152774442,
        "Argument of Periapsis(deg)": 0.009411618946803396,
        "Eccentricity": 0.0,
        "Inclination(deg)": 53.0,
        "Latitude(deg)": 52.27381117939092,
        "Longitude(deg)": 168.2541208032405,
        "Mean Anomaly(deg)": 98.74264249603131,
        "RAAN(deg)": 164.98599320790822,
        "Satellite Name": "Starlink Shell 1 731",
        "Satellite Number": 731,
        "Semi-Major Axis(m)": 6931778.249405717,
        "Time(s)": 270
    },
    {
        "Altitude(m)": 559672.6027889961,
        "Argument of Periapsis(deg)": 0.009760197426314633,
        "Eccentricity": 0.0,
        "Inclination(deg)": 53.0,
        "Latitude(deg)": 52.14533413565522,
        "Longitude(deg)": 169.21134881431038,
        "Mean Anomaly(deg)": 99.36947369958804,
        "RAAN(deg)": 164.98547443783076,
        "Satellite Name": "Starlink Shell 1 731",
        "Satellite Number": 731,
        "Semi-Major Axis(m)": 6931778.249405717,
        "Time(s)": 280
    },
    {
        "Altitude(m)": 559641.4586385374,
        "Argument of Periapsis(deg)": 0.01010877590582587,
        "Eccentricity": 0.0,
        "Inclination(deg)": 53.0,
        "Latitude(deg)": 52.00845450631304,
        "Longitude(deg)": 170.16266400207437,
        "Mean Anomaly(deg)": 99.99630490314473,
        "RAAN(deg)": 164.98495566775327,
        "Satellite Name": "Starlink Shell 1 731",
        "Satellite Number": 731,
        "Semi-Major Axis(m)": 6931778.249405717,
        "Time(s)": 290
    },
    {
        "Altitude(m)": 559608.4016255521,
        "Argument of Periapsis(deg)": 0.010457354385337106,
        "Eccentricity": 0.0,
        "Inclination(deg)": 53.0,
        "Latitude(deg)": 51.86326376967043,
        "Longitude(deg)": 171.1077633962789,
        "Mean Anomaly(deg)": 100.62313610670145,
        "RAAN(deg)": 164.9844368976758,
        "Satellite Name": "Starlink Shell 1 731",
        "Satellite Number": 731,
        "Semi-Major Axis(m)": 6931778.249405717,
        "Time(s)": 300
    },
    {
        "Altitude(m)": 559573.45171421,
        "Argument of Periapsis(deg)": 0.010805932864848343,
        "Eccentricity": 0.0,
        "Inclination(deg)": 53.0,
        "Latitude(deg)": 51.70985754055859,
        "Longitude(deg)": 172.0463590964024,
        "Mean Anomaly(deg)": 101.24996731025819,
        "RAAN(deg)": 164.98391812759834,
        "Satellite Name": "Starlink Shell 1 731",
        "Satellite Number": 731,
        "Semi-Major Axis(m)": 6931778.249405717,
        "Time(s)": 310
    },
    {
        "Altitude(m)": 559536.6300235812,
        "Argument of Periapsis(deg)": 0.01115451134435958,
        "Eccentricity": 0.0,
        "Inclination(deg)": 53.0,
        "Latitude(deg)": 51.54833528821999,
        "Longitude(deg)": 172.97817911524456,
        "Mean Anomaly(deg)": 101.87679851381488,
        "RAAN(deg)": 164.98339935752085,
        "Satellite Name": "Starlink Shell 1 731",
        "Satellite Number": 731,
        "Semi-Major Axis(m)": 6931778.249405717,
        "Time(s)": 320
    },
    {
        "Altitude(m)": 559497.9588173105,
        "Argument of Periapsis(deg)": 0.011503089823870818,
        "Eccentricity": 0.0,
        "Inclination(deg)": 53.0,
        "Latitude(deg)": 51.37880005098417,
        "Longitude(deg)": 173.90296813750825,
        "Mean Anomaly(deg)": 102.50362971737161,
        "RAAN(deg)": 164.9828805874434,
        "Satellite Name": "Starlink Shell 1 731",
        "Satellite Number": 731,
        "Semi-Major Axis(m)": 6931778.249405717,
        "Time(s)": 330
    },
    {
        "Altitude(m)": 559457.4614927361,
        "Argument of Periapsis(deg)": 0.011851668303382053,
        "Eccentricity": 0.0,
        "Inclination(deg)": 53.0,
        "Latitude(deg)": 51.20135814941784,
        "Longitude(deg)": 174.82048668279282,
        "Mean Anomaly(deg)": 103.13046092092831,
        "RAAN(deg)": 164.98236181736593,
        "Satellite Name": "Starlink Shell 1 731",
        "Satellite Number": 731,
        "Semi-Major Axis(m)": 6931778.249405717,
        "Time(s)": 340
    },
    {
        "Altitude(m)": 559415.162569438,
        "Argument of Periapsis(deg)": 0.012200246782893292,
        "Eccentricity": 0.0,
        "Inclination(deg)": 53.0,
        "Latitude(deg)": 51.0161188995508,
        "Longitude(deg)": 175.730511701686,
        "Mean Anomaly(deg)": 103.75729212448502,
        "RAAN(deg)": 164.98184304728844,
        "Satellite Name": "Starlink Shell 1 731",
        "Satellite Number": 731,
        "Semi-Major Axis(m)": 6931778.249405717,
        "Time(s)": 350
    },
    {
        "Altitude(m)": 559371.0876772171,
        "Argument of Periapsis(deg)": 0.012548825262404526,
        "Eccentricity": 0.0,
        "Inclination(deg)": 53.0,
        "Latitude(deg)": 50.823194327698296,
        "Longitude(deg)": 176.63283709558576,
        "Mean Anomaly(deg)": 104.38412332804178,
        "RAAN(deg)": 164.98132427721097,
        "Satellite Name": "Starlink Shell 1 731",
        "Satellite Number": 731,
        "Semi-Major Axis(m)": 6931778.249405717,
        "Time(s)": 360
    },
    {
        "Altitude(m)": 559325.2635435677,
        "Argument of Periapsis(deg)": 0.012897403741915765,
        "Eccentricity": 0.0,
        "Inclination(deg)": 53.0,
        "Latitude(deg)": 50.62269888830352,
        "Longitude(deg)": 177.5272726513659,
        "Mean Anomaly(deg)": 105.01095453159846,
        "RAAN(deg)": 164.9808055071335,
        "Satellite Name": "Starlink Shell 1 731",
        "Satellite Number": 731,
        "Semi-Major Axis(m)": 6931778.249405717,
        "Time(s)": 370
    }
]